NORAD_CAT_ID,OBJECT_NAME,OBJECT_TYPE,EPOCH,MEAN_MOTION,ECCENTRICITY,INCLINATION,RA_OF_ASC_NODE,ARG_OF_PERICENTER,MEAN_ANOMALY,BSTAR,MEAN_MOTION_DOT,MEAN_MOTION_DDOT,TLE_LINE0,TLE_LINE1,TLE_LINE2,SEMIMAJOR_AXIS,PERIOD,APOGEE,PERIGEE,DECAYED
52702.0,STARLINK-4033,PAYLOAD,2024-08-20 05:31:56,15.08841282,0.0001606,53.2169,172.0814,104.1115,256.0055,5.3187e-05,5.59e-06,0.0,0 STARLINK-4033,1 52702U 22053AY  24233.23051899  .00000559  00000-0  53187-4 0  9996,2 52702  53.2169 172.0814 0001606 104.1115 256.0055 15.08841282125575,6917.876,95.437,540.852,538.63,0.0
52702.0,STARLINK-4033,PAYLOAD,2024-08-21 05:22:43,15.08844078,0.0001484,53.2168,167.6218,103.4842,256.6316,8.8624e-05,1.123e-05,0.0,0 STARLINK-4033,1 52702U 22053AY  24234.22411723  .00001123  00000-0  88624-4 0  9994,2 52702  53.2168 167.6218 0001484 103.4842 256.6316 15.08844078125319,6917.868,95.437,540.76,538.706,0.0
52702.0,STARLINK-4033,PAYLOAD,2024-08-21 18:05:49,15.08827764,0.0001775,53.2174,165.2361,132.5407,227.5735,-1.771e-06,-3.16e-06,0.0,0 STARLINK-4033,1 52702U 22053AY  24234.75404972 -.00000316  00000-0 -17710-5 0  9994,2 52702  53.2174 165.2361 0001775 132.5407 227.5735 15.08827764125395,6917.918,95.438,541.011,538.555,0.0
